{"type":"FeatureCollection","features":[{"type":"Feature","properties":{"nombre":"Parque Natural Regional Sisavita","tipo":"protected_area"},"geometry":{"type":"Polygon","coordinates":[[[-72.83061,7.51138],[-72.82308,7.51045],[-72.82583,7.49956],[-72.84694,7.49415],[-72.84866,7.49309],[-72.84763,7.48747],[-72.8258,7.47567],[-72.81295,7.48271],[-72.81241,7.47959],[-72.81825,7.47363],[-72.81462,7.47494],[-72.80763,7.46637],[-72.79198,7.4675],[-72.79426,7.45274],[-72.79028,7.44994],[-72.79081,7.44646],[-72.79201,7.44288],[-72.79785,7.4405],[-72.79819,7.43743],[-72.78556,7.42732],[-72.8072,7.41058],[-72.80714,7.40542],[-72.8168,7.38797],[-72.81722,7.37633],[-72.82181,7.36335],[-72.83372,7.3593],[-72.85545,7.36233],[-72.85301,7.37477],[-72.87301,7.39135],[-72.87795,7.40679],[-72.89209,7.4208],[-72.89346,7.4262],[-72.90005,7.43396],[-72.90155,7.44639],[-72.8958,7.4657],[-72.88814,7.46416],[-72.87299,7.47871],[-72.86896,7.49158],[-72.85936,7.49558],[-72.85714,7.5122],[-72.85329,7.50892],[-72.83492,7.51079],[-72.83389,7.51283],[-72.83061,7.51138]]]}},{"type":"Feature","properties":{"nombre":"La Mesa de Los Santos","tipo":"national_park"},"geometry":{"type":"Polygon","coordinates":[[[-73.07306,6.93666],[-73.07741,6.93894],[-73.09668,6.93473],[-73.10419,6.92782],[-73.11551,6.92377],[-73.09406,6.94043],[-73.08698,6.9432],[-73.06319,6.93977],[-73.04975,6.93244],[-73.02456,6.91199],[-73.01842,6.89725],[-73.02014,6.89308],[-73.0137,6.88409],[-73.01503,6.88089],[-73.00576,6.85707],[-73.00847,6.85712],[-73.0083,6.85196],[-73.01525,6.85324],[-73.02632,6.84757],[-73.02825,6.8272],[-73.03612,6.82349],[-73.04679,6.80926],[-73.04834,6.79107],[-73.06746,6.75594],[-73.07659,6.75344],[-73.08345,6.76796],[-73.08994,6.75231],[-73.10437,6.73838],[-73.13595,6.73634],[-73.15132,6.73945],[-73.16471,6.74928],[-73.16751,6.75815],[-73.16342,6.76089],[-73.15312,6.75748],[-73.15389,6.75959],[-73.1708,6.766],[-73.18145,6.75772],[-73.18377,6.76335],[-73.19681,6.76523],[-73.19958,6.78556],[-73.19468,6.78999],[-73.1976,6.79048],[-73.19809,6.79778],[-73.18766,6.80442],[-73.17955,6.80565],[-73.17587,6.80224],[-73.1678,6.80418],[-73.16149,6.80052],[-73.16095,6.80363],[-73.16337,6.80537],[-73.17862,6.80937],[-73.17781,6.81395],[-73.17233,6.81704],[-73.17582,6.81724],[-73.17615,6.82067],[-73.1724,6.82543],[-73.16614,6.82597],[-73.16759,6.82897],[-73.16328,6.83458],[-73.16318,6.83958],[-73.1558,6.84009],[-73.15348,6.84773],[-73.14819,6.84533],[-73.14655,6.85229],[-73.1411,6.85535],[-73.12122,6.8586],[-73.11344,6.85234],[-73.10293,6.85216],[-73.09396,6.84887],[-73.08576,6.85375],[-73.08885,6.85503],[-73.08797,6.85855],[-73.07387,6.8699],[-73.07048,6.87731],[-73.09833,6.88481],[-73.08602,6.88745],[-73.0773,6.88545],[-73.08108,6.88852],[-73.08177,6.90944],[-73.08567,6.91272],[-73.08404,6.91502],[-73.07473,6.91425],[-73.0734,6.91536],[-73.07838,6.91668],[-73.07829,6.92166],[-73.06464,6.92814],[-73.06473,6.93249],[-73.07306,6.93666]]]}},{"type":"Feature","properties":{"nombre":"Reserva Natural de la Sociedad Civil Cabildo Verde I","tipo":"protected_area"},"geometry":{"type":"Polygon","coordinates":[[[-73.5185,7.32651],[-73.51855,7.3194],[-73.52331,7.31648],[-73.52277,7.32551],[-73.5185,7.32651]]]}},{"type":"Feature","properties":{"nombre":"Reserva Natural de la Sociedad Civil Finca El Prado","tipo":"Reserva Natural de la Sociedad Civil"},"geometry":{"type":"Polygon","coordinates":[[[-73.36179,7.1311],[-73.35582,7.13086],[-73.35906,7.12729],[-73.36179,7.1311]]]}},{"type":"Feature","properties":{"nombre":"Reserva Natural de la Sociedad Civil Pauxi Pauxi La Fortuna","tipo":"Reserva Natural de la Sociedad Civil"},"geometry":{"type":"Polygon","coordinates":[[[-73.47217,6.97774],[-73.46923,6.98253],[-73.46688,6.98077],[-73.46662,6.97129],[-73.47217,6.97774]]]}},{"type":"Feature","properties":{"nombre":"Reserva Natural de la Sociedad Civil Pauxi Pauxi Las Flores y El Porvenir","tipo":"Reserva Natural de la Sociedad Civil"},"geometry":{"type":"Polygon","coordinates":[[[-73.46796,6.98696],[-73.47217,6.97774],[-73.47617,6.98254],[-73.48352,6.98549],[-73.47703,6.98876],[-73.47711,6.98688],[-73.46988,6.98894],[-73.46796,6.98696]]]}},{"type":"Feature","properties":{"nombre":"Reserva Natural de la Sociedad Civil Pauxi pauxi predio La Esperanza","tipo":"Reserva Natural de la Sociedad Civil"},"geometry":{"type":"Polygon","coordinates":[[[-73.49192,7.00457],[-73.49463,7.00936],[-73.48784,7.01043],[-73.48377,7.00691],[-73.49192,7.00457]]]}},{"type":"Feature","properties":{"nombre":"Reserva Natural de la Sociedad Civil Pauxi pauxi predio La Pradera","tipo":"Reserva Natural de la Sociedad Civil"},"geometry":{"type":"Polygon","coordinates":[[[-73.50029,7.00577],[-73.50104,7.00895],[-73.49463,7.00936],[-73.49295,7.00689],[-73.50029,7.00577]]]}},{"type":"Feature","properties":{"nombre":"Reserva Natural de la Sociedad Civil Pauxi pauxi Buenos Aires","tipo":"Reserva Natural de la Sociedad Civil"},"geometry":{"type":"Polygon","coordinates":[[[-73.49619,7.00332],[-73.48582,7.00584],[-73.48466,7.00231],[-73.49289,6.99342],[-73.49619,7.00332]]]}},{"type":"Feature","properties":{"nombre":"Reserva Natural de la Sociedad Civil Pauxi Pauxi predio La Colina","tipo":"Reserva Natural de la Sociedad Civil"},"geometry":{"type":"Polygon","coordinates":[[[-73.49603,7.00631],[-73.49295,7.00689],[-73.4918,7.00382],[-73.50025,7.00267],[-73.50029,7.00577],[-73.49603,7.00631]]]}},{"type":"Feature","properties":{"nombre":"Reserva Natural de la Sociedad Civil Pauxi pauxi predio Agua Linda","tipo":"Reserva Natural de la Sociedad Civil"},"geometry":{"type":"Polygon","coordinates":[[[-73.4976,7.01506],[-73.49149,7.01561],[-73.48784,7.01043],[-73.49515,7.0093],[-73.4976,7.01506]]]}},{"type":"Feature","properties":{"nombre":"Reserva Natural de la Sociedad Civil Pauxi pauxi predio Dos Quebradas","tipo":"Reserva Natural de la Sociedad Civil"},"geometry":{"type":"Polygon","coordinates":[[[-73.4961,7.02618],[-73.49272,7.03063],[-73.49362,7.02633],[-73.4961,7.02618]]]}},{"type":"Feature","properties":{"nombre":"Reserva Natural de la Sociedad Civil De las Aves Cucarachero Chicamocha - Predio Lagunetas","tipo":"Reserva Natural de la Sociedad Civil"},"geometry":{"type":"Polygon","coordinates":[[[-73.22531,6.82337],[-73.2218,6.82987],[-73.20432,6.82868],[-73.19807,6.82294],[-73.19049,6.80335],[-73.19703,6.80297],[-73.20628,6.81284],[-73.22531,6.82337]]]}},{"type":"Feature","properties":{"nombre":"Reserva Natural de la Sociedad Civil De las Aves Reinita Cielo Azul","tipo":"Reserva Natural de la Sociedad Civil"},"geometry":{"type":"Polygon","coordinates":[[[-73.37396,6.86097],[-73.37301,6.85552],[-73.37752,6.85703],[-73.37964,6.85069],[-73.37953,6.85865],[-73.37576,6.86223],[-73.37396,6.86097]]]}},{"type":"Feature","properties":{"nombre":"Reserva Natural de la Sociedad Civil Traganubes","tipo":"Reserva Natural de la Sociedad Civil"},"geometry":{"type":"Polygon","coordinates":[[[-73.30508,6.85941],[-73.3013,6.85886],[-73.30119,6.85629],[-73.30678,6.85782],[-73.30508,6.85941]]]}},{"type":"Feature","properties":{"nombre":"Reserva Natural de la Sociedad Civil La Montana Magica El Poleo","tipo":"Reserva Natural de la Sociedad Civil"},"geometry":{"type":"Polygon","coordinates":[[[-73.30352,6.83227],[-73.31118,6.83004],[-73.30327,6.84139],[-73.29961,6.83549],[-73.30352,6.83227]]]}},{"type":"Feature","properties":{"nombre":"Reserva Natural de la Sociedad Civil Paramo La Floresta","tipo":"Reserva Natural de la Sociedad Civil"},"geometry":{"type":"Polygon","coordinates":[[[-73.32482,6.80432],[-73.32139,6.8159],[-73.3323,6.82001],[-73.3338,6.82397],[-73.32563,6.82789],[-73.31463,6.82784],[-73.31534,6.81665],[-73.31295,6.81204],[-73.32196,6.80587],[-73.32435,6.80044],[-73.32482,6.80432]]]}},{"type":"Feature","properties":{"nombre":"Reserva Natural de la Sociedad Civil Pauxi Pauxi El Guadual","tipo":"Reserva Natural de la Sociedad Civil"},"geometry":{"type":"Polygon","coordinates":[[[-73.45156,6.96296],[-73.45434,6.95767],[-73.45741,6.95876],[-73.45784,6.96633],[-73.45156,6.96296]]]}},{"type":"Feature","properties":{"nombre":"Reserva Natural de la Sociedad Civil De las aves Pauxi Pauxi- predio Buena Vista","tipo":"Reserva Natural de la Sociedad Civil"},"geometry":{"type":"Polygon","coordinates":[[[-73.45345,6.95743],[-73.45175,6.95585],[-73.45519,6.95037],[-73.4627,6.95593],[-73.46096,6.95965],[-73.45345,6.95743]]]}},{"type":"Feature","properties":{"nombre":"Reserva Natural de la Sociedad Civil Pauxi pauxi predio El Nogal","tipo":"Reserva Natural de la Sociedad Civil"},"geometry":{"type":"Polygon","coordinates":[[[-73.49667,7.01867],[-73.49469,7.01881],[-73.49449,7.01519],[-73.4976,7.01506],[-73.49667,7.01867]]]}},{"type":"Feature","properties":{"nombre":"Reserva Natural de la Sociedad Civil Pauxi pauxi predio La Ceiba","tipo":"Reserva Natural de la Sociedad Civil"},"geometry":{"type":"Polygon","coordinates":[[[-73.49486,7.0188],[-73.49656,7.01905],[-73.49617,7.02539],[-73.49451,7.02532],[-73.49486,7.0188]]]}},{"type":"Feature","properties":{"nombre":"Reserva Natural Montefiori Alto","tipo":"nature_reserve"},"geometry":{"type":"Polygon","coordinates":[[[-73.03832,7.08398],[-73.04239,7.07783],[-73.0375,7.08061],[-73.0352,7.07927],[-73.03379,7.08653],[-73.03743,7.0898],[-73.03832,7.08398]]]}},{"type":"Feature","properties":{"nombre":"Reserva Natural Núcleo El Brasil","tipo":"nature_reserve"},"geometry":{"type":"Polygon","coordinates":[[[-73.05934,7.14494],[-73.05941,7.14051],[-73.05725,7.13933],[-73.0527,7.1439],[-73.05544,7.14645],[-73.05934,7.14494]]]}},{"type":"Feature","properties":{"nombre":"Reserva Natural El Diviso","tipo":"nature_reserve"},"geometry":{"type":"Polygon","coordinates":[[[-73.0344,7.14041],[-73.03187,7.13311],[-73.03004,7.13745],[-73.0344,7.14041]]]}},{"type":"Feature","properties":{"nombre":"Reserva Forestal Cerro de la Judía","tipo":"nature_reserve"},"geometry":{"type":"Polygon","coordinates":[[[-73.02964,7.09449],[-73.03385,7.09193],[-73.03468,7.08397],[-73.03035,7.08056],[-73.0228,7.08896],[-73.02314,7.0937],[-73.02568,7.09475],[-73.02182,7.1015],[-73.02964,7.09449]]]}},{"type":"Feature","properties":{"nombre":"Reserva Natural Montefiori Bajo","tipo":"nature_reserve"},"geometry":{"type":"Polygon","coordinates":[[[-73.04178,7.08052],[-73.0449,7.07915],[-73.04321,7.07706],[-73.04178,7.08052]]]}},{"type":"Feature","properties":{"nombre":"PNR Bosques Húmedos Andinos","tipo":"nature_reserve"},"geometry":{"type":"Polygon","coordinates":[[[-72.98606,7.04327],[-72.99119,7.03972],[-72.98225,7.03963],[-72.98262,7.04238],[-72.98606,7.04327]]]}},{"type":"Feature","properties":{"nombre":"Refugio del Aullador","tipo":"nature_reserve"},"geometry":{"type":"Polygon","coordinates":[[[-72.98853,7.05181],[-72.99321,7.04989],[-72.99383,7.04541],[-72.99067,7.04887],[-72.98768,7.04842],[-72.98853,7.05181]]]}},{"type":"Feature","properties":{"nombre":"El Rasgón","tipo":"nature_reserve"},"geometry":{"type":"Polygon","coordinates":[[[-72.98985,7.04186],[-72.98529,7.04425],[-72.98286,7.04285],[-72.98985,7.04186]]]}},{"type":"Feature","properties":{"nombre":"Parque Nacional Natural Serranía de Los Yariguíes","tipo":"national_park"},"geometry":{"type":"MultiPolygon","coordinates":[[[[-73.36968,6.73544],[-73.37041,6.73832],[-73.36755,6.74173],[-73.36975,6.75025],[-73.3684,6.76697],[-73.35774,6.78345],[-73.36968,6.73544]]],[[[-73.3635,6.7362],[-73.35823,6.73476],[-73.35307,6.73782],[-73.35192,6.73545],[-73.35743,6.72747],[-73.35567,6.72374],[-73.35993,6.72026],[-73.35956,6.71767],[-73.36358,6.71803],[-73.37074,6.713],[-73.35892,6.70342],[-73.36213,6.70047],[-73.3635,6.7362]]],[[[-73.36213,6.70047],[-73.36238,6.69811],[-73.37026,6.69647],[-73.36881,6.69319],[-73.37175,6.69147],[-73.38009,6.69231],[-73.37488,6.68564],[-73.37846,6.68269],[-73.37318,6.67982],[-73.37331,6.67751],[-73.37729,6.68022],[-73.36213,6.70047]]],[[[-73.38467,6.6799],[-73.38081,6.67079],[-73.38184,6.66159],[-73.39887,6.63739],[-73.38467,6.6799]]],[[[-73.35574,6.61491],[-73.37596,6.62527],[-73.38396,6.63204],[-73.39274,6.63245],[-73.39887,6.63739],[-73.35574,6.61491]]],[[[-73.34773,6.59544],[-73.35437,6.59751],[-73.35315,6.59875],[-73.35738,6.60172],[-73.35463,6.60253],[-73.35445,6.60533],[-73.35996,6.61029],[-73.3642,6.60464],[-73.36869,6.60699],[-73.36812,6.60878],[-73.37316,6.60516],[-73.37611,6.60796],[-73.38151,6.60814],[-73.37704,6.60181],[-73.37981,6.6003],[-73.38,6.59558],[-73.34773,6.59544]]],[[[-73.38,6.59558],[-73.38245,6.59664],[-73.38239,6.59126],[-73.39235,6.59541],[-73.39298,6.58804],[-73.38235,6.5789],[-73.3839,6.5761],[-73.38923,6.57656],[-73.39566,6.5687],[-73.40038,6.56941],[-73.40081,6.56558],[-73.39323,6.56156],[-73.38382,6.56561],[-73.38406,6.56091],[-73.38035,6.56235],[-73.37418,6.55873],[-73.3753,6.55721],[-73.36748,6.5562],[-73.37705,6.55049],[-73.37253,6.54552],[-73.36163,6.5494],[-73.36528,6.54595],[-73.3623,6.54298],[-73.36824,6.54009],[-73.36642,6.53945],[-73.36864,6.53694],[-73.36671,6.53208],[-73.38,6.59558]]],[[[-73.36671,6.53208],[-73.37324,6.53747],[-73.37903,6.53505],[-73.37874,6.53893],[-73.38257,6.54289],[-73.38599,6.54012],[-73.39191,6.54283],[-73.39595,6.54051],[-73.40204,6.54417],[-73.40612,6.53768],[-73.40954,6.53927],[-73.40636,6.53243],[-73.40239,6.53246],[-73.3961,6.52643],[-73.39896,6.52047],[-73.39585,6.5193],[-73.39182,6.52191],[-73.39149,6.51774],[-73.38513,6.51645],[-73.38331,6.51187],[-73.38727,6.51189],[-73.38806,6.50902],[-73.36671,6.53208]]],[[[-73.38806,6.50902],[-73.38997,6.50965],[-73.39018,6.50585],[-73.39394,6.50311],[-73.38953,6.50216],[-73.38966,6.49838],[-73.38409,6.4974],[-73.38383,6.49977],[-73.37914,6.49737],[-73.37755,6.50276],[-73.37346,6.4992],[-73.37392,6.50381],[-73.37038,6.49913],[-73.36625,6.50154],[-73.37419,6.49319],[-73.37879,6.49237],[-73.37284,6.48558],[-73.37661,6.48187],[-73.36867,6.47538],[-73.36965,6.47086],[-73.38806,6.50902]]],[[[-73.36965,6.47086],[-73.36763,6.46484],[-73.37855,6.4679],[-73.38043,6.4722],[-73.38503,6.47357],[-73.38832,6.47122],[-73.38923,6.4611],[-73.39232,6.46572],[-73.39828,6.46799],[-73.40503,6.46635],[-73.40782,6.46245],[-73.40359,6.46099],[-73.40478,6.45834],[-73.41266,6.45991],[-73.36965,6.47086]]],[[[-73.41266,6.45991],[-73.42125,6.45676],[-73.41372,6.45334],[-73.41606,6.45087],[-73.4115,6.44884],[-73.41272,6.44724],[-73.40884,6.44526],[-73.40968,6.44257],[-73.41266,6.45991]]],[[[-73.47468,6.34799],[-73.47215,6.34801],[-73.47032,6.35576],[-73.46693,6.35305],[-73.46435,6.37962],[-73.45311,6.3803],[-73.46065,6.39231],[-73.45578,6.39877],[-73.44341,6.40131],[-73.42454,6.39977],[-73.42289,6.40597],[-73.4219,6.40408],[-73.41806,6.40649],[-73.41203,6.40361],[-73.41304,6.40882],[-73.40903,6.41208],[-73.41193,6.41359],[-73.40687,6.42118],[-73.41053,6.42195],[-73.41278,6.42849],[-73.40968,6.44257],[-73.47468,6.34799]]],[[[-73.47468,6.34799],[-73.47627,6.36089],[-73.47991,6.36755],[-73.47698,6.37475],[-73.47468,6.34799]]],[[[-73.52695,6.37566],[-73.51343,6.37618],[-73.51686,6.36509],[-73.51443,6.36946],[-73.50349,6.37478],[-73.49126,6.37316],[-73.48585,6.3775],[-73.47742,6.37973],[-73.52695,6.37566]]],[[[-73.53152,6.37883],[-73.54187,6.37438],[-73.54861,6.37558],[-73.54657,6.37884],[-73.55452,6.38839],[-73.55495,6.39774],[-73.56863,6.41031],[-73.55601,6.4108],[-73.55014,6.40769],[-73.54929,6.41291],[-73.54349,6.41776],[-73.5437,6.42501],[-73.54688,6.42883],[-73.54314,6.43505],[-73.53152,6.37883]]],[[[-73.54314,6.43505],[-73.54059,6.44242],[-73.53643,6.43926],[-73.53269,6.44224],[-73.52664,6.44044],[-73.52752,6.44657],[-73.5241,6.44558],[-73.51662,6.45386],[-73.51569,6.45724],[-73.52181,6.46314],[-73.52151,6.4673],[-73.54314,6.43505]]],[[[-73.52151,6.4673],[-73.52405,6.47659],[-73.54473,6.48314],[-73.55102,6.48218],[-73.56183,6.46991],[-73.56948,6.47405],[-73.57924,6.47353],[-73.58926,6.46591],[-73.52151,6.4673]]],[[[-73.58926,6.46591],[-73.59856,6.46009],[-73.60292,6.46449],[-73.60354,6.46818],[-73.59977,6.47492],[-73.60183,6.48159],[-73.60642,6.48256],[-73.60727,6.48567],[-73.60408,6.50035],[-73.60088,6.5031],[-73.58926,6.46591]]],[[[-73.60088,6.5031],[-73.60452,6.50756],[-73.60039,6.5043],[-73.5964,6.50671],[-73.60739,6.51404],[-73.60138,6.52136],[-73.58805,6.52884],[-73.58413,6.53462],[-73.60088,6.5031]]],[[[-73.58413,6.53462],[-73.57823,6.53903],[-73.56942,6.53219],[-73.566,6.54524],[-73.55946,6.5444],[-73.55587,6.55503],[-73.55032,6.56021],[-73.58413,6.53462]]],[[[-73.55032,6.56021],[-73.54677,6.5637],[-73.54874,6.57583],[-73.54396,6.57877],[-73.54495,6.592],[-73.5429,6.58307],[-73.53982,6.58043],[-73.53441,6.58126],[-73.52607,6.5901],[-73.52677,6.59361],[-73.52239,6.59264],[-73.52403,6.59609],[-73.52192,6.60183],[-73.51796,6.60173],[-73.55032,6.56021]]],[[[-73.51796,6.60173],[-73.51844,6.60666],[-73.5147,6.60756],[-73.51317,6.61523],[-73.51859,6.61198],[-73.51594,6.61886],[-73.52002,6.62176],[-73.50916,6.62317],[-73.49743,6.62068],[-73.49295,6.63416],[-73.49372,6.63838],[-73.48364,6.63763],[-73.51796,6.60173]]],[[[-73.33728,6.87479],[-73.33668,6.87787],[-73.34859,6.89189],[-73.34803,6.89704],[-73.35035,6.89551],[-73.35157,6.89726],[-73.35659,6.89275],[-73.3513,6.88748],[-73.3593,6.88736],[-73.35994,6.88432],[-73.35282,6.88262],[-73.35332,6.87621],[-73.35834,6.87878],[-73.36539,6.873],[-73.3726,6.86014],[-73.37323,6.85748],[-73.37054,6.85578],[-73.37774,6.8569],[-73.37969,6.85067],[-73.38136,6.85222],[-73.38405,6.84901],[-73.38187,6.84449],[-73.38681,6.83981],[-73.38156,6.83912],[-73.37946,6.83363],[-73.39067,6.83718],[-73.38315,6.82478],[-73.39433,6.82512],[-73.38888,6.81813],[-73.39191,6.81519],[-73.39596,6.81689],[-73.39242,6.80959],[-73.40379,6.80843],[-73.3988,6.80444],[-73.39884,6.79834],[-73.40184,6.7942],[-73.39627,6.79594],[-73.39959,6.77133],[-73.40146,6.767],[-73.40504,6.767],[-73.40317,6.76159],[-73.40489,6.75726],[-73.3999,6.75803],[-73.3999,6.73019],[-73.40831,6.72772],[-73.42077,6.72973],[-73.4217,6.72478],[-73.42544,6.72339],[-73.42497,6.70622],[-73.43261,6.70257],[-73.42909,6.70213],[-73.43162,6.69316],[-73.43548,6.69218],[-73.43713,6.69524],[-73.44043,6.69327],[-73.43537,6.6878],[-73.43647,6.68387],[-73.44297,6.67938],[-73.44308,6.67206],[-73.44726,6.66943],[-73.44814,6.6586],[-73.45506,6.6528],[-73.45778,6.64361],[-73.46074,6.6416],[-73.46495,6.64292],[-73.46324,6.63681],[-73.46806,6.63348],[-73.47087,6.63696],[-73.46831,6.64459],[-73.46925,6.65044],[-73.47773,6.65295],[-73.47877,6.6476],[-73.48411,6.6471],[-73.4818,6.64574],[-73.48351,6.63943],[-73.47841,6.63846],[-73.48059,6.63521],[-73.48364,6.63763],[-73.33728,6.87479]]],[[[-73.35229,6.82137],[-73.34798,6.83984],[-73.34258,6.84616],[-73.3428,6.85563],[-73.33728,6.87479],[-73.35229,6.82137]]],[[[-73.3525,6.81478],[-73.36005,6.81767],[-73.36928,6.81386],[-73.37202,6.81671],[-73.37379,6.82949],[-73.3706,6.82912],[-73.37008,6.83135],[-73.36554,6.82796],[-73.35987,6.82845],[-73.35816,6.82363],[-73.35229,6.82137],[-73.3525,6.81478]]],[[[-73.35774,6.78345],[-73.36057,6.78797],[-73.35435,6.80267],[-73.3525,6.81478],[-73.35774,6.78345]]]]}},{"type":"Feature","properties":{"nombre":"Parque Natural Regional Páramo de Santurbán","tipo":"protected_area"},"geometry":{"type":"MultiPolygon","coordinates":[[[[-72.95085,7.51656],[-72.95329,7.51703],[-72.95258,7.51346],[-72.96909,7.50162],[-72.96624,7.50145],[-72.96497,7.49727],[-72.9683,7.49158],[-72.96337,7.49425],[-72.95127,7.4923],[-72.94754,7.47931],[-72.94291,7.48118],[-72.94107,7.47712],[-72.9365,7.47596],[-72.93216,7.47554],[-72.92205,7.48368],[-72.9238,7.47848],[-72.91749,7.47921],[-72.9179,7.47393],[-72.91267,7.47301],[-72.91179,7.4669],[-72.913,7.46375],[-72.91722,7.46317],[-72.91589,7.46032],[-72.92219,7.46004],[-72.92188,7.45725],[-72.92432,7.45637],[-72.92468,7.4536],[-72.92063,7.45098],[-72.92299,7.44913],[-72.92266,7.44368],[-72.91754,7.44161],[-72.91811,7.43962],[-72.92637,7.43868],[-72.92775,7.42629],[-72.93444,7.41937],[-72.94522,7.41765],[-72.95024,7.41108],[-72.94408,7.4084],[-72.94439,7.40255],[-72.94161,7.40266],[-72.93916,7.39793],[-72.94158,7.39157],[-72.93679,7.38744],[-72.92199,7.38272],[-72.92054,7.38567],[-72.9185,7.38442],[-72.91424,7.38801],[-72.90617,7.38489],[-72.90242,7.38861],[-72.89876,7.38608],[-72.88686,7.39307],[-72.88665,7.38951],[-72.88131,7.38405],[-72.95085,7.51656]]],[[[-72.88131,7.38405],[-72.8801,7.38151],[-72.88762,7.37646],[-72.88348,7.37127],[-72.90173,7.3581],[-72.90232,7.35366],[-72.89947,7.35452],[-72.90176,7.35011],[-72.8948,7.34543],[-72.89633,7.34405],[-72.88774,7.34422],[-72.88554,7.34168],[-72.88438,7.33637],[-72.88744,7.33137],[-72.88578,7.32762],[-72.87969,7.33136],[-72.87441,7.32515],[-72.8731,7.3285],[-72.86978,7.32648],[-72.8678,7.32881],[-72.86053,7.32901],[-72.86127,7.32512],[-72.85431,7.31793],[-72.8555,7.31014],[-72.86058,7.30329],[-72.87018,7.30713],[-72.87153,7.29842],[-72.88628,7.29948],[-72.89726,7.29294],[-72.90717,7.29993],[-72.90998,7.30578],[-72.91728,7.30156],[-72.92292,7.29218],[-72.91509,7.28967],[-72.9036,7.27315],[-72.89071,7.26358],[-72.87806,7.26177],[-72.8759,7.26833],[-72.87015,7.27361],[-72.87086,7.27766],[-72.86355,7.28305],[-72.8562,7.28449],[-72.83601,7.30235],[-72.84295,7.31523],[-72.83944,7.32068],[-72.84127,7.32632],[-72.83966,7.34191],[-72.8422,7.34498],[-72.83675,7.35374],[-72.8366,7.35873],[-72.85588,7.36171],[-72.85047,7.37322],[-72.87147,7.38693],[-72.87941,7.40769],[-72.90044,7.43441],[-72.90096,7.44761],[-72.89331,7.47503],[-72.90619,7.48126],[-72.91535,7.49181],[-72.92845,7.49386],[-72.93194,7.50492],[-72.93924,7.51209],[-72.95085,7.51656],[-72.88131,7.38405]]]]}}]}