{"type":"FeatureCollection","name":"reserva_forestal_ley2_cdmb","features":[{"type":"Feature","properties":{"tipo":"reserva-forestal","fuente":"MADS","nombre":"Río Magdalena","acto":"Resolucion 1924 De 2013 Zonificacion"},"geometry":{"type":"MultiPolygon","coordinates":[[[[-73.95,7.95],[-73.95,7.88297],[-73.9477,7.8863],[-73.9458,7.8854],[-73.9442,7.8886],[-73.9376,7.8861],[-73.9371,7.8877],[-73.9354,7.8835],[-73.9291,7.8831],[-73.9275,7.8787],[-73.9317,7.871],[-73.936,7.8699],[-73.9389,7.8664],[-73.9441,7.8654],[-73.9448,7.856],[-73.9489,7.8493],[-73.9471,7.8383],[-73.9402,7.8364],[-73.9356,7.8324],[-73.9318,7.8259],[-73.9311,7.8186],[-73.9328,7.8136],[-73.9381,7.8074],[-73.9373,7.7939],[-73.9442,7.7922],[-73.95,7.7877],[-73.95,7.72587],[-73.9479,7.7221],[-73.95,7.71841],[-73.9478,7.7221],[-73.95,7.72609],[-73.95,7.7877],[-73.9442,7.7921],[-73.9373,7.7939],[-73.9381,7.8074],[-73.9328,7.8135],[-73.931,7.819],[-73.9317,7.826],[-73.9356,7.8325],[-73.9402,7.8364],[-73.9471,7.8384],[-73.9488,7.8502],[-73.9454,7.8537],[-73.9441,7.8652],[-73.9389,7.8663],[-73.9361,7.8698],[-73.9314,7.8712],[-73.9274,7.8787],[-73.929,7.8831],[-73.9277,7.8842],[-73.9259,7.8843],[-73.925,7.8826],[-73.9177,7.8852],[-73.9129,7.8823],[-73.9109,7.8856],[-73.9087,7.8841],[-73.9085,7.8873],[-73.9064,7.8858],[-73.9055,7.8871],[-73.9051,7.8854],[-73.9021,7.8883],[-73.9012,7.8869],[-73.907,7.8769],[-73.9076,7.8705],[-73.8953,7.8667],[-73.8908,7.8515],[-73.8899,7.8429],[-73.8914,7.8383],[-73.8869,7.8359],[-73.8877,7.83],[-73.8829,7.8309],[-73.8851,7.8259],[-73.8794,7.8208],[-73.8814,7.8152],[-73.8812,7.8109],[-73.8861,7.8073],[-73.8855,7.7991],[-73.8873,7.794],[-73.8804,7.7838],[-73.8777,7.7841],[-73.8757,7.7823],[-73.8725,7.7835],[-73.867,7.7793],[-73.8657,7.7752],[-73.8632,7.7749],[-73.8632,7.7724],[-73.8603,7.77],[-73.8495,7.7804],[-73.8463,7.7792],[-73.8413,7.7817],[-73.8368,7.7812],[-73.8348,7.7765],[-73.8383,7.7746],[-73.8341,7.771],[-73.8343,7.7668],[-73.8302,7.7582],[-73.83,7.754],[-73.8356,7.7451],[-73.8351,7.74],[-73.8449,7.7261],[-73.8553,7.7323],[-73.835,7.76],[-73.8553,7.7323],[-73.869,7.7406],[-73.8513,7.7655],[-73.8691,7.7407],[-73.8955,7.7566],[-73.8691,7.7406],[-73.881,7.724],[-73.9132,7.7436],[-73.9101,7.7482],[-73.9132,7.7436],[-73.9331,7.7558],[-73.9132,7.7436],[-73.9379,7.7065],[-73.9433,7.71],[-73.9379,7.7065],[-73.9416,7.7009],[-73.9379,7.7065],[-73.9077,7.6866],[-73.9337,7.6501],[-73.9407,7.6543],[-73.9337,7.6501],[-73.9383,7.6438],[-73.9337,7.6501],[-73.921,7.6425],[-73.9364,7.6213],[-73.9387,7.6222],[-73.9364,7.6213],[-73.95,7.6028],[-73.9364,7.6213],[-73.9221,7.6157],[-73.95,7.57598],[-73.9221,7.6157],[-73.9059,7.6094],[-73.9349,7.5688],[-73.9058,7.6094],[-73.8919,7.6039],[-73.9208,7.5641],[-73.8919,7.6039],[-73.8763,7.5978],[-73.8983,7.5682],[-73.8762,7.5978],[-73.8619,7.5922],[-73.8812,7.5626],[-73.8619,7.5922],[-73.8588,7.591],[-73.8619,7.5922],[-73.855,7.6028],[-73.849,7.5992],[-73.855,7.6028],[-73.8438,7.6201],[-73.855,7.6028],[-73.8671,7.6101],[-73.8476,7.6363],[-73.8671,7.6101],[-73.8812,7.6186],[-73.8563,7.6529],[-73.8491,7.6481],[-73.8563,7.6529],[-73.8355,7.6815],[-73.8563,7.6529],[-73.8689,7.6611],[-73.8413,7.6997],[-73.838,7.6978],[-73.8413,7.6998],[-73.8382,7.7041],[-73.8413,7.6998],[-73.8567,7.7092],[-73.8449,7.726],[-73.8373,7.7215],[-73.8449,7.7261],[-73.8351,7.74],[-73.8275,7.7368],[-73.8317,7.7306],[-73.8308,7.7251],[-73.8186,7.718],[-73.8109,7.7058],[-73.8099,7.6987],[-73.8156,7.6915],[-73.8157,7.6889],[-73.8137,7.6845],[-73.8117,7.6833],[-73.8095,7.6758],[-73.8065,7.6728],[-73.8056,7.6677],[-73.8004,7.6628],[-73.7971,7.6492],[-73.7989,7.6458],[-73.8043,7.6426],[-73.8126,7.6441],[-73.8172,7.6392],[-73.8166,7.6331],[-73.8103,7.6236],[-73.8109,7.6115],[-73.8137,7.6082],[-73.8239,7.6022],[-73.8287,7.5914],[-73.8307,7.5812],[-73.8303,7.5754],[-73.8401,7.5647],[-73.8473,7.5382],[-73.8575,7.5306],[-73.8656,7.5326],[-73.8685,7.5317],[-73.8698,7.5245],[-73.8783,7.5154],[-73.8785,7.5095],[-73.8803,7.5066],[-73.9018,7.5016],[-73.9101,7.4979],[-73.9153,7.4863],[-73.9136,7.4764],[-73.9218,7.4685],[-73.9243,7.4685],[-73.9262,7.4733],[-73.9252,7.4748],[-73.9263,7.4733],[-73.9245,7.4685],[-73.9272,7.4721],[-73.9249,7.4685],[-73.9309,7.4685],[-73.9343,7.4661],[-73.9389,7.4437],[-73.9434,7.4365],[-73.95,7.43244],[-73.95,7.39146],[-73.9474,7.3929],[-73.95,7.39703],[-73.9441,7.3931],[-73.943,7.388],[-73.9392,7.3877],[-73.9409,7.384],[-73.937,7.3779],[-73.9426,7.376],[-73.9438,7.3694],[-73.95,7.3694],[-73.95,7.95]]],[[[-73.9495,7.7303],[-73.95,7.72652],[-73.9482,7.7275],[-73.9495,7.7303]]],[[[-73.8848,6.9605],[-73.883,6.9581],[-73.879,6.962],[-73.8768,6.9593],[-73.8784,6.9549],[-73.8729,6.9556],[-73.872,6.9528],[-73.8699,6.9522],[-73.8678,6.9491],[-73.8641,6.951],[-73.8615,6.9494],[-73.861,6.9465],[-73.8549,6.9471],[-73.8526,6.9419],[-73.8505,6.9407],[-73.8497,6.9359],[-73.8518,6.9337],[-73.8514,6.928],[-73.8527,6.9245],[-73.8509,6.9228],[-73.8466,6.923],[-73.8476,6.921],[-73.8455,6.9186],[-73.8453,6.9154],[-73.8415,6.9114],[-73.8419,6.9061],[-73.8385,6.8994],[-73.8422,6.8923],[-73.8411,6.8886],[-73.8427,6.8855],[-73.834,6.8856],[-73.831,6.8881],[-73.8251,6.8843],[-73.8242,6.8896],[-73.819,6.8882],[-73.8169,6.8843],[-73.8174,6.8877],[-73.8126,6.889],[-73.8082,6.8938],[-73.8049,6.89],[-73.8018,6.8939],[-73.8,6.8916],[-73.8054,6.8875],[-73.8062,6.8828],[-73.802,6.8841],[-73.8017,6.8799],[-73.7984,6.8789],[-73.7957,6.8724],[-73.7946,6.8753],[-73.792,6.8722],[-73.7866,6.8746],[-73.7823,6.8738],[-73.7816,6.8696],[-73.7784,6.8647],[-73.7696,6.8565],[-73.7726,6.8555],[-73.7736,6.8527],[-73.777,6.851],[-73.7777,6.8451],[-73.7817,6.8472],[-73.785,6.8458],[-73.7916,6.8538],[-73.7916,6.8558],[-73.7942,6.8565],[-73.7932,6.855],[-73.7927,6.8563],[-73.7916,6.8557],[-73.7916,6.8538],[-73.7851,6.8459],[-73.7877,6.8411],[-73.7918,6.8379],[-73.7933,6.8342],[-73.7921,6.8325],[-73.7945,6.8294],[-73.7925,6.8292],[-73.7902,6.8262],[-73.7871,6.8273],[-73.8003,6.8041],[-73.8009,6.8066],[-73.8067,6.8059],[-73.805,6.8035],[-73.8073,6.8054],[-73.809,6.8046],[-73.8093,6.7966],[-73.8111,6.7967],[-73.8135,6.7899],[-73.8151,6.7895],[-73.8157,6.7937],[-73.8221,6.7986],[-73.8194,6.8021],[-73.8179,6.8113],[-73.8193,6.8098],[-73.8227,6.8141],[-73.826,6.8137],[-73.8317,6.8176],[-73.8357,6.8254],[-73.8347,6.8284],[-73.8367,6.8366],[-73.8316,6.841],[-73.829,6.8414],[-73.8246,6.8468],[-73.8236,6.8489],[-73.8258,6.8493],[-73.8216,6.8532],[-73.8203,6.8589],[-73.8229,6.8676],[-73.8291,6.8719],[-73.8304,6.8762],[-73.8315,6.877],[-73.8418,6.8733],[-73.8479,6.8727],[-73.8452,6.8743],[-73.8442,6.8779],[-73.8455,6.8797],[-73.8523,6.8794],[-73.8554,6.8774],[-73.8565,6.8781],[-73.8556,6.8841],[-73.8615,6.8753],[-73.8639,6.8677],[-73.8665,6.8694],[-73.8704,6.8674],[-73.8717,6.8705],[-73.8702,6.8747],[-73.8729,6.8847],[-73.8767,6.8859],[-73.8801,6.8835],[-73.8893,6.8925],[-73.8914,6.896],[-73.8909,6.8983],[-73.8933,6.8966],[-73.9027,6.896],[-73.901,6.899],[-73.9032,6.8983],[-73.9056,6.9037],[-73.905,6.9081],[-73.9067,6.9063],[-73.9079,6.9071],[-73.9083,6.9055],[-73.9097,6.9064],[-73.9091,6.9012],[-73.9116,6.9031],[-73.913,6.9072],[-73.9145,6.9073],[-73.9163,6.9064],[-73.9183,6.9015],[-73.9212,6.8998],[-73.9221,6.9009],[-73.9235,6.8942],[-73.9222,6.8891],[-73.9237,6.8851],[-73.9202,6.8869],[-73.9182,6.8855],[-73.9207,6.883],[-73.9212,6.8634],[-73.9268,6.8633],[-73.9239,6.8579],[-73.9383,6.8574],[-73.9384,6.8561],[-73.9336,6.8542],[-73.9349,6.8507],[-73.9332,6.8464],[-73.9346,6.8453],[-73.9392,6.846],[-73.9392,6.8437],[-73.9369,6.841],[-73.9379,6.8396],[-73.941,6.844],[-73.9434,6.8439],[-73.9396,6.8384],[-73.9414,6.8377],[-73.943,6.8407],[-73.9425,6.8374],[-73.9454,6.8326],[-73.9316,6.8369],[-73.9318,6.8337],[-73.923,6.8334],[-73.9188,6.8305],[-73.9152,6.8306],[-73.9154,6.8281],[-73.9093,6.8222],[-73.8982,6.8308],[-73.8915,6.8311],[-73.8883,6.8334],[-73.886,6.827],[-73.8809,6.8212],[-73.8817,6.8187],[-73.8795,6.8115],[-73.8826,6.8108],[-73.8805,6.8049],[-73.875,6.7999],[-73.8671,6.8032],[-73.866,6.7899],[-73.8686,6.785],[-73.8706,6.7843],[-73.8679,6.7817],[-73.8661,6.7836],[-73.8587,6.7787],[-73.862,6.7741],[-73.8589,6.7717],[-73.8603,6.7698],[-73.8595,6.7692],[-73.8639,6.7644],[-73.8708,6.7626],[-73.8744,6.7687],[-73.8782,6.7661],[-73.8754,6.7619],[-73.8768,6.7605],[-73.8763,6.7589],[-73.8691,6.75],[-73.8658,6.7537],[-73.8621,6.7488],[-73.8569,6.7494],[-73.856,6.7437],[-73.88,6.7173],[-73.8896,6.6991],[-73.907,6.6883],[-73.95,6.64984],[-73.95,6.64783],[-73.9071,6.6875],[-73.8899,6.6982],[-73.8762,6.7216],[-73.8688,6.7289],[-73.8735,6.7239],[-73.8665,6.7237],[-73.8641,6.7211],[-73.8643,6.7193],[-73.866,6.7187],[-73.87,6.7208],[-73.8726,6.7183],[-73.8728,6.716],[-73.8677,6.7131],[-73.8652,6.7133],[-73.8631,6.7035],[-73.8597,6.7053],[-73.8568,6.7048],[-73.8549,6.6981],[-73.8497,6.6988],[-73.848,6.6972],[-73.8523,6.6878],[-73.8495,6.6853],[-73.8452,6.6855],[-73.8445,6.6837],[-73.8459,6.6804],[-73.8492,6.6796],[-73.853,6.6756],[-73.8528,6.6727],[-73.8503,6.6708],[-73.8463,6.6711],[-73.8445,6.6697],[-73.844,6.6733],[-73.8424,6.6746],[-73.8406,6.674],[-73.828,6.6782],[-73.8317,6.6847],[-73.8273,6.6864],[-73.8243,6.6948],[-73.8213,6.6924],[-73.8155,6.6966],[-73.8127,6.6904],[-73.8042,6.6929],[-73.8033,6.6948],[-73.7964,6.6945],[-73.7955,6.6967],[-73.7925,6.6964],[-73.7925,6.6918],[-73.7905,6.6898],[-73.7941,6.6877],[-73.7927,6.6868],[-73.7968,6.6811],[-73.7959,6.68],[-73.797,6.6794],[-73.7951,6.678],[-73.7959,6.677],[-73.8011,6.6797],[-73.8056,6.6798],[-73.8061,6.677],[-73.8136,6.679],[-73.8172,6.6755],[-73.8176,6.6738],[-73.8154,6.673],[-73.8224,6.668],[-73.8232,6.6659],[-73.8214,6.6612],[-73.8243,6.6603],[-73.8233,6.653],[-73.8208,6.6546],[-73.8194,6.6482],[-73.821,6.6469],[-73.8196,6.6441],[-73.8178,6.6457],[-73.8162,6.6446],[-73.8137,6.647],[-73.8114,6.6469],[-73.8077,6.6428],[-73.8056,6.6456],[-73.8018,6.6468],[-73.7928,6.6446],[-73.7911,6.6479],[-73.7868,6.6444],[-73.7862,6.6486],[-73.782,6.6512],[-73.7803,6.6479],[-73.7809,6.6437],[-73.7756,6.6451],[-73.7735,6.6442],[-73.7733,6.6412],[-73.7779,6.6407],[-73.7792,6.6373],[-73.7824,6.6355],[-73.7813,6.631],[-73.7857,6.6288],[-73.7874,6.6257],[-73.784,6.6263],[-73.7823,6.6223],[-73.7775,6.6261],[-73.7753,6.6213],[-73.7721,6.6271],[-73.7683,6.6284],[-73.7609,6.6355],[-73.7617,6.6363],[-73.7604,6.6368],[-73.7596,6.6407],[-73.7523,6.6387],[-73.7434,6.64],[-73.7324,6.6387],[-73.732,6.6402],[-73.7285,6.6375],[-73.7243,6.6394],[-73.7242,6.6446],[-73.7279,6.6455],[-73.7281,6.6482],[-73.7309,6.6489],[-73.7297,6.6517],[-73.7263,6.6514],[-73.7257,6.6544],[-73.7328,6.6547],[-73.7331,6.6574],[-73.7368,6.6564],[-73.7366,6.6609],[-73.7347,6.6639],[-73.7365,6.6651],[-73.735,6.6737],[-73.7364,6.6769],[-73.7401,6.6769],[-73.7388,6.6799],[-73.7371,6.6782],[-73.7394,6.6855],[-73.7377,6.6875],[-73.74,6.6881],[-73.7384,6.6917],[-73.7419,6.6914],[-73.7431,6.696],[-73.7426,6.6979],[-73.738,6.701],[-73.7431,6.7009],[-73.7406,6.7062],[-73.7434,6.7092],[-73.7409,6.7102],[-73.7431,6.7113],[-73.7424,6.7177],[-73.7396,6.7207],[-73.733,6.7176],[-73.7324,6.7218],[-73.7304,6.7225],[-73.7326,6.724],[-73.7295,6.7266],[-73.732,6.7278],[-73.7303,6.7298],[-73.7318,6.7344],[-73.7303,6.7371],[-73.7367,6.7365],[-73.7327,6.7407],[-73.7358,6.7454],[-73.7404,6.7474],[-73.7362,6.7503],[-73.7404,6.7511],[-73.738,6.7545],[-73.7398,6.7537],[-73.7399,6.7549],[-73.7365,6.7554],[-73.7347,6.7575],[-73.7353,6.7611],[-73.7308,6.7615],[-73.7352,6.7648],[-73.7345,6.7672],[-73.7316,6.7674],[-73.7355,6.7738],[-73.7321,6.776],[-73.732,6.7781],[-73.7395,6.7792],[-73.7395,6.7821],[-73.736,6.7812],[-73.7353,6.7827],[-73.7408,6.7866],[-73.7406,6.7885],[-73.7424,6.7882],[-73.7506,6.7928],[-73.7521,6.791],[-73.7517,6.7948],[-73.7527,6.7954],[-73.7479,6.7981],[-73.7506,6.8006],[-73.7481,6.8015],[-73.751,6.8036],[-73.7523,6.809],[-73.7549,6.8066],[-73.7571,6.8089],[-73.7604,6.8086],[-73.7614,6.8056],[-73.7657,6.8027],[-73.7682,6.8051],[-73.7658,6.8027],[-73.7675,6.8018],[-73.7697,6.8045],[-73.7744,6.8029],[-73.7806,6.8049],[-73.7832,6.803],[-73.7854,6.8052],[-73.7871,6.8018],[-73.7889,6.8038],[-73.7915,6.8014],[-73.7988,6.8054],[-73.7962,6.8091],[-73.7911,6.8112],[-73.7885,6.8202],[-73.7826,6.8177],[-73.782,6.8191],[-73.7849,6.8182],[-73.7892,6.8212],[-73.7834,6.8311],[-73.7782,6.8304],[-73.7754,6.8358],[-73.7703,6.8347],[-73.7704,6.8295],[-73.7689,6.8265],[-73.7713,6.8249],[-73.7679,6.8214],[-73.7706,6.8175],[-73.7675,6.8129],[-73.7686,6.8127],[-73.7675,6.8115],[-73.7693,6.8095],[-73.7686,6.8064],[-73.7698,6.805],[-73.7682,6.8051],[-73.7693,6.8095],[-73.7677,6.8114],[-73.7662,6.8104],[-73.7705,6.8165],[-73.7679,6.821],[-73.7712,6.8249],[-73.7688,6.8269],[-73.7707,6.8325],[-73.7702,6.834],[-73.7643,6.8324],[-73.7618,6.8333],[-73.7655,6.8325],[-73.7651,6.8345],[-73.7664,6.8334],[-73.7702,6.8342],[-73.7705,6.8385],[-73.7679,6.8416],[-73.7685,6.8447],[-73.7707,6.8463],[-73.7759,6.8452],[-73.7689,6.8559],[-73.767,6.855],[-73.7631,6.8582],[-73.7534,6.858],[-73.7518,6.8613],[-73.7495,6.8613],[-73.7488,6.8557],[-73.7547,6.8558],[-73.7533,6.8508],[-73.7605,6.8466],[-73.7596,6.8417],[-73.7554,6.8428],[-73.7553,6.8398],[-73.753,6.8399],[-73.752,6.8337],[-73.7482,6.8339],[-73.7383,6.8255],[-73.735,6.8273],[-73.7348,6.8221],[-73.7379,6.8191],[-73.7379,6.8173],[-73.7335,6.8152],[-73.7314,6.8183],[-73.727,6.8192],[-73.726,6.8159],[-73.7284,6.8132],[-73.7248,6.8029],[-73.7222,6.8026],[-73.7185,6.7953],[-73.7171,6.7948],[-73.7135,6.7976],[-73.709,6.7976],[-73.7064,6.7887],[-73.7017,6.7884],[-73.7,6.7849],[-73.6943,6.7853],[-73.6859,6.7817],[-73.6822,6.7846],[-73.6761,6.7835],[-73.67565,6.6],[-73.95,6.6],[-73.95,6.95522],[-73.9481,6.9568],[-73.9393,6.9565],[-73.9347,6.9621],[-73.9289,6.965],[-73.9233,6.9749],[-73.9171,6.9768],[-73.9108,6.9833],[-73.9069,6.9841],[-73.9027,6.9943],[-73.896,6.9964],[-73.8911,7.0002],[-73.8871,7.0109],[-73.8864,7.024],[-73.8908,7.0297],[-73.8926,7.0588],[-73.8915,7.0656],[-73.899,7.0825],[-73.9038,7.0846],[-73.9056,7.0826],[-73.9103,7.0819],[-73.9198,7.0868],[-73.923,7.0908],[-73.9243,7.0978],[-73.9297,7.1037],[-73.9312,7.1078],[-73.9358,7.109],[-73.939,7.1138],[-73.9457,7.112],[-73.9449,7.1169],[-73.9481,7.1202],[-73.95,7.12014],[-73.95,7.26529],[-73.9157,7.2957],[-73.9169,7.2871],[-73.9216,7.2818],[-73.9248,7.2675],[-73.9245,7.2562],[-73.9198,7.2415],[-73.9202,7.2331],[-73.9234,7.2275],[-73.9245,7.2133],[-73.9263,7.2072],[-73.9369,7.1865],[-73.9388,7.1792],[-73.9388,7.174],[-73.9316,7.1592],[-73.9295,7.1515],[-73.9337,7.1286],[-73.9301,7.1167],[-73.926,7.1097],[-73.913,7.0955],[-73.9039,7.0883],[-73.8968,7.0848],[-73.8906,7.077],[-73.8875,7.0703],[-73.8863,7.0476],[-73.8822,7.0292],[-73.8797,7.0246],[-73.8796,7.0145],[-73.8838,7.0037],[-73.8885,6.9977],[-73.898,6.991],[-73.9056,6.9816],[-73.9191,6.9709],[-73.9276,6.9612],[-73.9201,6.9523],[-73.9095,6.9596],[-73.9072,6.9631],[-73.9012,6.9634],[-73.8989,6.9594],[-73.8968,6.9592],[-73.8959,6.9624],[-73.8973,6.9665],[-73.8954,6.9687],[-73.8914,6.9663],[-73.8909,6.961],[-73.8885,6.9617],[-73.8862,6.9681],[-73.8826,6.9684],[-73.8859,6.9635],[-73.8846,6.9619],[-73.8867,6.9598],[-73.8848,6.9605]]],[[[-73.89,6.9533],[-73.8915,6.9536],[-73.8902,6.9543],[-73.8927,6.9535],[-73.89,6.9533]]],[[[-73.8882,6.9551],[-73.8896,6.9543],[-73.8877,6.9538],[-73.8896,6.9535],[-73.8852,6.9541],[-73.8876,6.9538],[-73.8882,6.9551]]],[[[-73.8927,6.6228],[-73.8913,6.6187],[-73.8927,6.6215],[-73.8925,6.628],[-73.8987,6.6347],[-73.8926,6.628],[-73.8927,6.6228]]],[[[-73.9121,6.61],[-73.914,6.6101],[-73.9155,6.6204],[-73.9194,6.6228],[-73.9209,6.6265],[-73.9195,6.6227],[-73.9156,6.6204],[-73.9141,6.6098],[-73.9121,6.61]]],[[[-73.8661,6.7344],[-73.8705,6.7315],[-73.8672,6.732],[-73.8661,6.7344]]],[[[-73.9249,6.6289],[-73.9214,6.6292],[-73.9249,6.6332],[-73.9253,6.6272],[-73.9249,6.6289]]],[[[-73.708,6.636],[-73.7067,6.6412],[-73.7075,6.6428],[-73.707,6.6407],[-73.71,6.6339],[-73.709,6.6327],[-73.708,6.636]]],[[[-73.9331,6.6792],[-73.9348,6.6761],[-73.9327,6.676],[-73.9326,6.6788],[-73.9311,6.6739],[-73.9289,6.6739],[-73.9287,6.6688],[-73.9289,6.6779],[-73.9317,6.677],[-73.9331,6.6792]]],[[[-73.6842,6.7123],[-73.6873,6.7134],[-73.6877,6.7097],[-73.6855,6.7066],[-73.6836,6.7102],[-73.6842,6.7123]]],[[[-73.872,6.7394],[-73.875,6.7373],[-73.8727,6.7331],[-73.869,6.7365],[-73.872,6.7394]]],[[[-73.9468,6.7857],[-73.95,6.7826],[-73.95,6.77903],[-73.945,6.7838],[-73.9468,6.7857]]],[[[-73.9467,6.9351],[-73.9246,6.9465],[-73.9275,6.95],[-73.9266,6.9545],[-73.9275,6.949],[-73.9248,6.9466],[-73.9467,6.9351]]],[[[-73.35215,7.95],[-73.3582,7.9442],[-73.3647,7.9414],[-73.3681,7.9425],[-73.3694,7.9415],[-73.3698,7.9365],[-73.3679,7.934],[-73.3721,7.93],[-73.372,7.9212],[-73.3754,7.9194],[-73.3761,7.9128],[-73.3855,7.9125],[-73.3887,7.908],[-73.393,7.909],[-73.3921,7.8984],[-73.3985,7.898],[-73.401,7.8936],[-73.4037,7.8926],[-73.4062,7.8892],[-73.4078,7.8797],[-73.4102,7.8811],[-73.4107,7.8831],[-73.4118,7.8809],[-73.418,7.8822],[-73.4176,7.8852],[-73.4154,7.8841],[-73.4124,7.8856],[-73.4151,7.8893],[-73.4151,7.8943],[-73.4189,7.8874],[-73.4185,7.8907],[-73.4202,7.893],[-73.4192,7.8961],[-73.4242,7.8916],[-73.423,7.89],[-73.4237,7.8866],[-73.4273,7.8907],[-73.4264,7.8946],[-73.4285,7.8943],[-73.4299,7.8966],[-73.4292,7.8992],[-73.427,7.9003],[-73.4237,7.8961],[-73.4188,7.9016],[-73.4226,7.9033],[-73.4226,7.9056],[-73.4198,7.9066],[-73.4271,7.9105],[-73.4263,7.9143],[-73.4222,7.9147],[-73.4209,7.9169],[-73.4262,7.9175],[-73.4265,7.9192],[-73.4238,7.9209],[-73.4279,7.9216],[-73.4261,7.9392],[-73.4235,7.9411],[-73.4202,7.9407],[-73.4198,7.9388],[-73.4183,7.9413],[-73.4146,7.9411],[-73.4155,7.9438],[-73.4216,7.9435],[-73.4222,7.9462],[-73.4177,7.9481],[-73.4147,7.9444],[-73.4126,7.9469],[-73.4145,7.9464],[-73.4167,7.9491],[-73.42018,7.95],[-73.35215,7.95]]],[[[-73.4087,7.9322],[-73.408,7.9309],[-73.401,7.9361],[-73.4032,7.9373],[-73.4054,7.9359],[-73.4065,7.9374],[-73.4093,7.9343],[-73.4087,7.9322]]],[[[-73.886,7.7169],[-73.9077,7.6866],[-73.9379,7.7065],[-73.9132,7.7436],[-73.881,7.724],[-73.886,7.7169]]],[[[-73.8643,7.6676],[-73.8689,7.6611],[-73.8836,7.6708],[-73.8567,7.7092],[-73.8413,7.6998],[-73.8643,7.6676]]],[[[-73.8927,7.6279],[-73.8939,7.6262],[-73.9086,7.6351],[-73.8836,7.6708],[-73.8689,7.6611],[-73.8927,7.6279]]],[[[-73.7975,6.8046],[-73.7915,6.8013],[-73.7889,6.8037],[-73.7871,6.8017],[-73.7866,6.7963],[-73.7837,6.7895],[-73.7855,6.7869],[-73.7844,6.7817],[-73.7744,6.785],[-73.771,6.7647],[-73.7735,6.7615],[-73.7723,6.7598],[-73.7667,6.7646],[-73.7611,6.7591],[-73.767,6.7543],[-73.7763,6.7567],[-73.7803,6.7543],[-73.7837,6.7605],[-73.7858,6.7612],[-73.7859,6.7759],[-73.7908,6.7804],[-73.79,6.7748],[-73.7957,6.7749],[-73.7947,6.7776],[-73.7967,6.7781],[-73.7955,6.7799],[-73.7973,6.7803],[-73.7968,6.7829],[-73.7987,6.7831],[-73.7981,6.7885],[-73.7999,6.7886],[-73.7995,6.7923],[-73.7976,6.7932],[-73.7994,6.7966],[-73.7959,6.8022],[-73.7973,6.8044],[-73.7997,6.8039],[-73.7975,6.8046]]],[[[-73.8732,7.7078],[-73.8949,7.6782],[-73.9077,7.6866],[-73.881,7.724],[-73.8674,7.7157],[-73.8732,7.7078]]],[[[-73.9077,7.6866],[-73.8949,7.6782],[-73.921,7.6425],[-73.9337,7.6501],[-73.9077,7.6866]]],[[[-73.8776,7.6236],[-73.8812,7.6186],[-73.8938,7.6262],[-73.8689,7.6611],[-73.8563,7.6529],[-73.8776,7.6236]]],[[[-73.8949,7.6782],[-73.8836,7.6708],[-73.9086,7.6351],[-73.921,7.6425],[-73.8949,7.6782]]],[[[-73.8577,7.7078],[-73.8836,7.6708],[-73.8948,7.6782],[-73.8674,7.7157],[-73.8568,7.7092],[-73.8577,7.7078]]],[[[-73.9011,7.6161],[-73.9059,7.6094],[-73.9221,7.6158],[-73.9086,7.635],[-73.8939,7.6262],[-73.9011,7.6161]]],[[[-73.921,7.6425],[-73.9086,7.6351],[-73.9221,7.6158],[-73.9364,7.6213],[-73.921,7.6425]]],[[[-73.8668,7.7166],[-73.8674,7.7157],[-73.881,7.724],[-73.8691,7.7406],[-73.8553,7.7323],[-73.8668,7.7166]]],[[[-73.8939,7.6262],[-73.8812,7.6186],[-73.8919,7.6039],[-73.9058,7.6094],[-73.8939,7.6262]]],[[[-73.8812,7.6186],[-73.8671,7.6101],[-73.8762,7.5978],[-73.8918,7.6039],[-73.8812,7.6186]]],[[[-73.856,7.7103],[-73.8567,7.7092],[-73.8674,7.7157],[-73.8553,7.7323],[-73.8449,7.7261],[-73.856,7.7103]]],[[[-73.8671,7.6101],[-73.855,7.6028],[-73.8619,7.5922],[-73.8762,7.5978],[-73.8671,7.6101]]],[[[-73.7777,6.8451],[-73.7869,6.8276],[-73.7902,6.8265],[-73.7933,6.8299],[-73.7917,6.8379],[-73.7905,6.8387],[-73.7879,6.836],[-73.7904,6.8392],[-73.7828,6.847],[-73.7777,6.8451]]],[[[-73.7694,6.8454],[-73.7679,6.8416],[-73.7703,6.839],[-73.7703,6.835],[-73.7761,6.836],[-73.778,6.8306],[-73.7822,6.8308],[-73.7813,6.8325],[-73.783,6.8331],[-73.7759,6.8451],[-73.7707,6.8463],[-73.7694,6.8454]]],[[[-73.7949,6.8094],[-73.7997,6.8041],[-73.7899,6.8211],[-73.7884,6.8197],[-73.791,6.8114],[-73.7949,6.8094]]],[[[-73.7835,6.8305],[-73.7841,6.8283],[-73.7862,6.8273],[-73.7838,6.8318],[-73.7835,6.8305]]],[[[-73.8848,6.9605],[-73.8832,6.9604],[-73.8838,6.9594],[-73.8848,6.9605]]]]}},{"type":"Feature","properties":{"tipo":"reserva-forestal","fuente":"MADS","nombre":"Área de la Reserva Forestal en Sustracción Temporal","acto":""},"geometry":{"type":"MultiPolygon","coordinates":[[[[-73.8545,7.761],[-73.869,7.7406],[-73.8553,7.7323],[-73.835,7.76],[-73.8553,7.7323],[-73.8449,7.7261],[-73.8351,7.74],[-73.8449,7.7261],[-73.8373,7.7215],[-73.8449,7.726],[-73.8567,7.7092],[-73.8413,7.6998],[-73.8382,7.7041],[-73.8413,7.6998],[-73.838,7.6978],[-73.8413,7.6997],[-73.8689,7.6611],[-73.8563,7.6529],[-73.8355,7.6815],[-73.8563,7.6529],[-73.8491,7.6481],[-73.8563,7.6529],[-73.8812,7.6186],[-73.8671,7.6101],[-73.8476,7.6363],[-73.8671,7.6101],[-73.855,7.6028],[-73.8438,7.6201],[-73.855,7.6028],[-73.849,7.5992],[-73.855,7.6028],[-73.8619,7.5922],[-73.8588,7.591],[-73.8619,7.5922],[-73.8812,7.5626],[-73.8619,7.5922],[-73.8762,7.5978],[-73.8983,7.5682],[-73.8763,7.5978],[-73.8919,7.6039],[-73.9208,7.5641],[-73.8919,7.6039],[-73.9058,7.6094],[-73.9349,7.5688],[-73.9059,7.6094],[-73.9221,7.6157],[-73.95,7.57586],[-73.9221,7.6157],[-73.9364,7.6213],[-73.95,7.6028],[-73.9364,7.6213],[-73.9387,7.6222],[-73.9364,7.6213],[-73.921,7.6425],[-73.9337,7.6501],[-73.9383,7.6438],[-73.9337,7.6501],[-73.9407,7.6543],[-73.9337,7.6501],[-73.9077,7.6866],[-73.9379,7.7065],[-73.9416,7.7009],[-73.9379,7.7065],[-73.9433,7.71],[-73.9379,7.7065],[-73.9132,7.7436],[-73.9331,7.7558],[-73.9132,7.7436],[-73.9101,7.7482],[-73.9132,7.7436],[-73.881,7.724],[-73.8691,7.7406],[-73.8955,7.7566],[-73.8691,7.7407],[-73.8545,7.761]]],[[[-73.8671,7.6101],[-73.8762,7.5978],[-73.8619,7.5922],[-73.855,7.6028],[-73.8671,7.6101]]],[[[-73.8668,7.7165],[-73.8674,7.7157],[-73.8567,7.7092],[-73.8449,7.7261],[-73.8553,7.7323],[-73.8668,7.7165]]],[[[-73.8812,7.6186],[-73.8918,7.6039],[-73.8762,7.5978],[-73.8671,7.6101],[-73.8812,7.6186]]],[[[-73.8919,7.6039],[-73.8812,7.6186],[-73.8939,7.6262],[-73.9058,7.6094],[-73.8919,7.6039]]],[[[-73.8691,7.7406],[-73.881,7.724],[-73.8674,7.7157],[-73.8553,7.7323],[-73.8691,7.7406]]],[[[-73.9364,7.6213],[-73.9221,7.6158],[-73.9086,7.6351],[-73.921,7.6425],[-73.9364,7.6213]]],[[[-73.9059,7.6094],[-73.8939,7.6262],[-73.9086,7.635],[-73.9221,7.6158],[-73.9059,7.6094]]],[[[-73.8668,7.7153],[-73.8948,7.6782],[-73.8836,7.6708],[-73.8568,7.7092],[-73.8668,7.7153]]],[[[-73.921,7.6425],[-73.9086,7.6351],[-73.8836,7.6708],[-73.8949,7.6782],[-73.921,7.6425]]],[[[-73.8927,7.6279],[-73.8938,7.6262],[-73.8812,7.6186],[-73.8563,7.6529],[-73.8689,7.6611],[-73.8927,7.6279]]],[[[-73.9337,7.6501],[-73.921,7.6425],[-73.8949,7.6782],[-73.9077,7.6866],[-73.9337,7.6501]]],[[[-73.9077,7.6866],[-73.8949,7.6782],[-73.8674,7.7157],[-73.881,7.724],[-73.9077,7.6866]]],[[[-73.8927,7.6279],[-73.8689,7.6611],[-73.8836,7.6708],[-73.9086,7.6351],[-73.8939,7.6262],[-73.8927,7.6279]]],[[[-73.8577,7.7078],[-73.8836,7.6708],[-73.8689,7.6611],[-73.8413,7.6998],[-73.8567,7.7092],[-73.8577,7.7078]]],[[[-73.9077,7.6866],[-73.881,7.724],[-73.9132,7.7436],[-73.9379,7.7065],[-73.9077,7.6866]]],[[[-73.7719,6.8529],[-73.7773,6.8452],[-73.7783,6.8471],[-73.777,6.851],[-73.7736,6.8527],[-73.7726,6.8555],[-73.7706,6.8552],[-73.7719,6.8529]]],[[[-73.9468,6.7857],[-73.945,6.7838],[-73.95,6.77903],[-73.95,6.7826],[-73.9468,6.7857]]],[[[-73.8723,6.7333],[-73.875,6.7373],[-73.872,6.7394],[-73.869,6.7365],[-73.8723,6.7333]]],[[[-73.9375,6.9397],[-73.9248,6.9466],[-73.9275,6.949],[-73.9266,6.9545],[-73.9275,6.95],[-73.9266,6.9483],[-73.9275,6.949],[-73.9246,6.9465],[-73.9375,6.9397]]],[[[-73.7071,6.6399],[-73.7095,6.6328],[-73.707,6.6407],[-73.7077,6.6427],[-73.7071,6.6399]]],[[[-73.8661,6.7344],[-73.8672,6.732],[-73.8705,6.7315],[-73.8661,6.7344]]],[[[-73.95,7.7285],[-73.9497,7.7306],[-73.9482,7.7275],[-73.95,7.72656],[-73.95,7.7285]]],[[[-73.8849,6.9603],[-73.8838,6.9594],[-73.8818,6.9605],[-73.883,6.9581],[-73.8849,6.9603]]],[[[-73.8848,6.9605],[-73.8867,6.9598],[-73.8846,6.9619],[-73.8848,6.9605]]],[[[-73.9256,6.6328],[-73.9241,6.6325],[-73.9237,6.6306],[-73.9256,6.6328]]],[[[-73.9237,6.6298],[-73.9224,6.6296],[-73.9249,6.6289],[-73.9256,6.6271],[-73.9254,6.6293],[-73.9237,6.6298]]],[[[-73.8882,6.9552],[-73.8876,6.9538],[-73.8852,6.9541],[-73.8876,6.9535],[-73.8882,6.9552]]]]}}]}